[{"OBJECT_NAME":"STARLINK-33901","OBJECT_ID":"2025-094Q","EPOCH":"2026-03-09T20:25:37.134336","MEAN_MOTION":14.98313761,"ECCENTRICITY":0.00030915,"INCLINATION":70.0016,"RA_OF_ASC_NODE":234.1936,"ARG_OF_PERICENTER":241.9102,"MEAN_ANOMALY":118.1745,"EPHEMERIS_TYPE":0,"CLASSIFICATION_TYPE":"U","NORAD_CAT_ID":63878,"ELEMENT_SET_NO":999,"REV_AT_EPOCH":4722,"BSTAR":0.0010054032,"MEAN_MOTION_DOT":0.00011919,"MEAN_MOTION_DDOT":0},{"OBJECT_NAME":"CZ-2C DEB","OBJECT_ID":"2014-014C","EPOCH":"2026-03-09T21:03:10.213920","MEAN_MOTION":14.96114302,"ECCENTRICITY":0.00460916,"INCLINATION":98.2261,"RA_OF_ASC_NODE":46.6653,"ARG_OF_PERICENTER":297.3827,"MEAN_ANOMALY":62.2706,"EPHEMERIS_TYPE":0,"CLASSIFICATION_TYPE":"U","NORAD_CAT_ID":39626,"ELEMENT_SET_NO":999,"REV_AT_EPOCH":63530,"BSTAR":0.002211971,"MEAN_MOTION_DOT":0.00025431,"MEAN_MOTION_DDOT":0}]
